#dP2021  1 29  0  0  0.00000000     289 ORBIT ITRF  BHN ESOC                    
## 2142 432000.00000000   300.00000000 59243 0.0000000000000                    
+  115   G13G28G21G22G07G05G20G31G17G15G16G29G12G19G02G25G01                    
+        G30G24G27G06G09G03G32G26G08G10G04G18G23G14R11R20R19                    
+        R13R01R22R16R08R03R07R02R17R14R18R21R05R15R12R04R24                    
+        E11E12E19E18E14E26E24E30E08E09E01E02E07E03E04E05E21                    
+        E25E27E31E36E13E15E33C11C12C14C19C20C27C28C22C21C29                    
+        C30C23C24C26C25C32C33C35C34C36C37C46C45C44C43C41C42                    
+        C06C07C08C09C10C13C16C38C39C40J01J02J03  0  0  0  0                    
++         4  5  5  5  4  5  5  5  5  5  5  5  5  5  5  5  5                    
++         4  4  5  5  4  5  5  5  4  5  4  5  5  5  5  6  6                    
++         5  6  7  5  6  6  6  5  5  5  5  5  5  5  5  5  6                    
++         5  5  4  5  5  5  5  5  5  5  5  5  5  4  4  5  5                    
++         5  5  5  5  5  5  5  6  6  5  5  5  6  6  5  6  5                    
++         5  5  5  5  5  5  6  5  6  5  6  6  6  6  6  7  6                    
++         6  6  7  6  6  7  6  8  8  7  7  6  7  0  0  0  0                    
%c M  cc GPS ccc cccc cccc cccc cccc ccccc ccccc ccccc ccccc                    
%c cc cc ccc ccc cccc cccc cccc cccc ccccc ccccc ccccc ccccc                    
%f  0.0000000  0.000000000  0.00000000000  0.000000000000000                    
%f  0.0000000  0.000000000  0.00000000000  0.000000000000000                    
%i    0    0    0    0      0      0      0      0         0                    
%i    0    0    0    0      0      0      0      0         0                    
/* CCCCCCCCCCCCCCCCCCCCCCCCCCCCCCCCCCCCCCCCCCCCCCCCCCCCCCCCCCCCCCCCCCCCCCCCCCCCC
/* CCCCCCCCCCCCCCCCCCCCCCCCCCCCCCCCCCCCCCCCCCCCCCCCCCCCCCCCCCCCCCCCCCCCCCCCCCCCC
/* CCCCCCCCCCCCCCCCCCCCCCCCCCCCCCCCCCCCCCCCCCCCCCCCCCCCCCCCCCCCCCCCCCCCCCCCCCCCC
/* PCV:IGS        OL/AL:EOT11A   NONE     YN ORB:CoN CLK:CoN                    
*  2021  1 29 22 50  0.00000000                                                 
PG13 -17035.685331  -3302.558747  20006.329679     91.384444                    
PG28 -14491.629284 -12963.220270  18572.115930    622.874670                    
PG21  16643.696258 -16118.145074  13329.752665     91.135549                    
PG22  22175.899057 -10765.108193  -9467.418323   -689.198298                    
PG07   4274.859608 -24177.903632   9804.751094     40.056144                    
PG05 -26458.575563   3201.474029    626.228412    -32.299135                    
PG20   1689.651984  15657.341742  21318.468458    524.939924                    
PG31  12433.366145   9204.529020 -21635.753247    -96.929746                    
PG17 -14161.795196 -22413.498669  -1184.711703    386.541942                    
PG15 -12025.191355  10139.076966  21045.200596   -172.943530                    
PG16  26800.653655    894.036633   -490.444837   -272.390001                    
PG29   1666.231241  22203.762039 -14488.307065   -285.205219                    
PG12 -19666.625236  10043.186831 -14887.374901      6.102181                    
PG19 -17004.192814 -18154.676663  -9716.195465    -45.353127                    
PG02 -16333.046052   3112.745714 -20057.131409   -571.374386                    
PG25  -5422.136750  15230.030307 -21279.426592     69.943981                    
PG01  14232.774701 -21684.153311   4558.907754    771.320234                    
PG30  -4860.633410 -19005.798412  17851.721183   -376.735881                    
PG24 -15282.639358  19238.690480   9327.903106      3.018495                    
PG27  18609.532025   5780.510978  18058.563936    -66.027686                    
PG06 -10141.532458 -11827.617272 -21437.539823     -4.019763                    
PG09  -3560.791528 -22364.818111 -13921.214643   -317.846534                    
PG03  15688.802797 -12892.337742 -17144.980915    -69.263006                    
PG32  16286.904541  20962.363187  -2275.226304     16.690375                    
PG26  23678.906089   5468.704523 -11073.596897     37.299007                    
PG08  12730.488708  -8054.664735  21886.250578     -8.396050                    
PG10  14409.626987  12056.608398  18984.142084    -50.174683                    
PG04   7476.705790 -15096.391099 -20517.311280   -176.489214                    
PG18  -2894.803388  23528.805262  11916.385539    344.519595                    
PG23   2385.493478  14981.171856  21778.494869    117.619411                    
PG14 -11991.519781 -13427.852969  19521.943439     92.118267                    
PR11  13369.501153   3320.858664 -21458.758329      4.014629                    
PR20  -6513.310659  19642.899369 -14930.161292   -432.237789                    
PR19 -10365.031928    -63.058557 -23299.721074   -129.941708                    
PR13  17625.894444 -16359.655504   8495.212759    -49.999367                    
PR01  22320.239713   5081.542618 -11243.936469     74.203152                    
PR22   8569.932142  15711.044949  18215.288056    -95.146203                    
PR16 -21962.744231  10098.013213   7904.298529    -10.743885                    
PR08  21657.350564  13119.170220   3230.691674    -57.144478                    
PR03  -9930.174646 -14915.322673 -18090.530098     30.004780                    
PR07  10530.835295  15061.104477  17746.321316    -42.301976                    
PR02   7634.410905  -8172.328071 -22892.204765    464.886309                    
PR17  -2004.905215 -25339.120805  -2341.030634    395.567193                    
PR14   2498.884878 -13795.782487  21314.605381     60.395629                    
PR18  -8386.894408 -16539.943997 -17464.711197     64.857897                    
PR21   2449.817809  25130.432952   3544.990350   -183.954229                    
PR05 -21207.292305  -4027.276889  13578.520217     65.604165                    
PR15 -13666.256315  -3365.066827  21287.035369    105.656428                    
PR12  22131.529138  -9193.404938  -8755.447626    200.740151                    
PR04 -21672.022408 -13066.410183  -3147.288670     72.015821                    
PR24   6316.203847 -20190.249382  14284.155855     29.600857                    
PE11   5167.724667 -29032.302150  -2465.053228   6396.199682                    
PE12  15416.633407 -19490.360310  16077.632231   5381.953635                    
PE19  24374.141388  11138.524713 -12576.408400    190.832642                    
PE18  17481.837288  11599.563028  11536.039716  -1434.023031                    
PE14 -23951.249462  -9116.499543 -19479.578421  -1311.960631                    
PE26   8178.416876  20884.744887  19327.046400   2208.064804                    
PE24   7707.904826 -17861.797740  22305.322301   -716.019688                    
PE30 -25117.625511  13140.396165  -8492.622039   3222.972584                    
PE08 -14688.405594   9189.821945  23997.284068   6054.670556                    
PE09  -3528.138996 -22043.891385 -19444.523869   5782.631342                    
PE01  27834.105918   -999.718681 -10041.805343  -1035.216127                    
PE02 -27846.352200   1073.146442   9943.067271    194.653138                    
PE07   3171.411599  22081.617290  19452.699753   -494.134520                    
PE03 -24234.760744  -9134.049516  14337.281534   -392.856745                    
PE04  15061.584945  -8956.883454 -23855.896965   -699.081982                    
PE05 -19312.225065 -22120.540663  -3730.832635   -308.821541                    
PE21  15039.734135  11539.461332 -22739.507277   -645.591030                    
PE25 -14844.523499 -11644.335526  22808.558642   -525.357159                    
PE27  -6883.861337  17824.574286 -22601.155444     40.753649                    
PE31  24640.700944 -13603.027587   9185.494393   -477.811675                    
PE36  -7720.306364 -21378.169200 -18945.601652    447.592038                    
PE13  -5322.276878  29047.139732   2090.683859    411.157758                    
PE15 -15268.102056  19627.967445 -16045.172261    831.859134                    
PE33  16223.721201   1349.237544  24733.800671   -465.265666                    
PC11 -14613.104240 -16987.018452 -16589.122114   -920.439974                    
PC12  -6207.294834 -27213.418035   -404.195968    762.539110                    
PC14 -24404.096692 -12002.573831  -6353.351906     15.578726                    
PC19  27076.860753   6042.731106  -2930.453869    708.931820                    
PC20  18814.356209  15494.507482  13581.379330   -911.406691                    
PC27   -475.345831  26539.847011  -8657.883383    474.641180                    
PC28 -12068.543987  13574.395475 -21177.478411   -115.815731                    
PC22  19834.963389  -7187.562398 -18253.548973   -861.243026                    
PC21   1079.926470 -16129.601811 -22733.003680   -814.461530                    
PC29  16840.129318   6641.622152  21236.818976    345.288071                    
PC30  12034.896150  23723.421394   8473.806112    437.849167                    
PC23 -21910.009991  16983.400251   3159.102814   -878.065897                    
PC24  -7481.542642 -14859.069757  22395.920208   -750.330617                    
PC26   8844.642512 -22432.060071  14070.356588    955.837360                    
PC25 -21190.840018   2643.627445  17944.331418   -915.052109                    
PC32  -1014.038904  16152.187821  22746.358901   -887.962438                    
PC33 -27123.646993  -5932.299978   2882.244159   -939.753525                    
PC35  11811.897048 -13679.258961  21253.884902   -442.406721                    
PC34 -12308.185759 -23328.727034  -9074.816757   -751.887765                    
PC36  21125.614184  -1880.277179 -18120.236729   -766.108315                    
PC37 -10048.437483  22270.901481 -13447.844631   -861.833965                    
PC46   8270.130650  14105.650085 -22608.491714    429.229658                    
PC45  21853.226620 -17097.418774  -3115.950599    348.359416                    
PC44   -216.529360 -26461.655094   8801.033437     12.059022                    
PC43 -16909.386629  -7172.557417 -21002.013258   -574.512753                    
PC41 -20025.711544   7138.771728  18116.870038   -931.882058                    
PC42 -18313.915748 -15684.555979 -14015.721682   -831.705617                    
PC06  -6334.239090  33903.820177  24993.016102     46.288718                    
PC07 -18209.899304  23093.938615 -30097.675575   -275.461318                    
PC08 -22274.871341  35029.869924   6204.078116   -923.977106                    
PC09   4004.818044  40334.502287  12630.495116    769.278158                    
PC10  -3459.913418  26120.857000 -32717.757028    -95.420497                    
PC13 -10494.299692  35668.182440  19736.946067    119.231328                    
PC16  -4873.252697  34136.150542  24491.263667   -676.749887                    
PC38 -20387.134321  36054.041009   7566.656072    126.846553                    
PC39  -1638.993645  34889.207095  23712.573870     27.891419                    
PC40  -9500.699246  20759.747970 -35450.755758    126.243232                    
PJ01 -27710.108582  21289.063809  28647.223228   -338.326885                    
PJ02 -36318.468824  19269.193395  -4889.141356      1.242397                    
PJ03 -18976.861310  27214.708607 -21336.070030     -0.335680                    
EOF                                                                             
